[
    {
        "Altitude(m)": 707487.2060957344,
        "Argument of Periapsis(deg)": 0.006834072711976239,
        "Eccentricity": 0.0,
        "Inclination(deg)": 45.0,
        "Latitude(deg)": -18.07320012655241,
        "Longitude(deg)": 70.60774829489256,
        "Mean Anomaly(deg)": -25.80737001151155,
        "RAAN(deg)": 189.99354883512507,
        "Satellite Name": "Constellation 1 856",
        "Satellite Number": 856,
        "Semi-Major Axis(m)": 7083131.272910544,
        "Time(s)": 114
    },
    {
        "Altitude(m)": 707474.5314181547,
        "Argument of Periapsis(deg)": 0.006894020718221645,
        "Eccentricity": 0.0,
        "Inclination(deg)": 45.0,
        "Latitude(deg)": -18.032394023483093,
        "Longitude(deg)": 70.6509758418942,
        "Mean Anomaly(deg)": -25.74666887126169,
        "RAAN(deg)": 189.99349224595952,
        "Satellite Name": "Constellation 1 856",
        "Satellite Number": 856,
        "Semi-Major Axis(m)": 7083131.272910544,
        "Time(s)": 115
    },
    {
        "Altitude(m)": 707461.8668992411,
        "Argument of Periapsis(deg)": 0.006953968724467052,
        "Eccentricity": 0.0,
        "Inclination(deg)": 45.0,
        "Latitude(deg)": -17.991576080678303,
        "Longitude(deg)": 70.69418169778474,
        "Mean Anomaly(deg)": -25.68596773101173,
        "RAAN(deg)": 189.99343565679396,
        "Satellite Name": "Constellation 1 856",
        "Satellite Number": 856,
        "Semi-Major Axis(m)": 7083131.272910544,
        "Time(s)": 116
    },
    {
        "Altitude(m)": 707449.2125790953,
        "Argument of Periapsis(deg)": 0.007013916730712457,
        "Eccentricity": 0.0,
        "Inclination(deg)": 45.0,
        "Latitude(deg)": -17.950746331567323,
        "Longitude(deg)": 70.73736591895597,
        "Mean Anomaly(deg)": -25.625266590761765,
        "RAAN(deg)": 189.99337906762835,
        "Satellite Name": "Constellation 1 856",
        "Satellite Number": 856,
        "Semi-Major Axis(m)": 7083131.272910544,
        "Time(s)": 117
    },
    {
        "Altitude(m)": 707436.5684977652,
        "Argument of Periapsis(deg)": 0.007073864736957864,
        "Eccentricity": 0.0,
        "Inclination(deg)": 45.0,
        "Latitude(deg)": -17.909904809537224,
        "Longitude(deg)": 70.7805285617699,
        "Mean Anomaly(deg)": -25.56456545051193,
        "RAAN(deg)": 189.9933224784628,
        "Satellite Name": "Constellation 1 856",
        "Satellite Number": 856,
        "Semi-Major Axis(m)": 7083131.272910544,
        "Time(s)": 118
    },
    {
        "Altitude(m)": 707423.9346952431,
        "Argument of Periapsis(deg)": 0.0071338127432032696,
        "Eccentricity": 0.0,
        "Inclination(deg)": 45.0,
        "Latitude(deg)": -17.86905154793313,
        "Longitude(deg)": 70.82366951446177,
        "Mean Anomaly(deg)": -25.503864310262045,
        "RAAN(deg)": 189.99326588929722,
        "Satellite Name": "Constellation 1 856",
        "Satellite Number": 856,
        "Semi-Major Axis(m)": 7083131.272910544,
        "Time(s)": 119
    },
    {
        "Altitude(m)": 707411.3112114719,
        "Argument of Periapsis(deg)": 0.007193760749448674,
        "Eccentricity": 0.0,
        "Inclination(deg)": 45.0,
        "Latitude(deg)": -17.82818658005791,
        "Longitude(deg)": 70.86678916952789,
        "Mean Anomaly(deg)": -25.44316317001208,
        "RAAN(deg)": 189.99320930013167,
        "Satellite Name": "Constellation 1 856",
        "Satellite Number": 856,
        "Semi-Major Axis(m)": 7083131.272910544,
        "Time(s)": 120
    },
    {
        "Altitude(m)": 707398.6980863366,
        "Argument of Periapsis(deg)": 0.007253708755694079,
        "Eccentricity": 0.0,
        "Inclination(deg)": 45.0,
        "Latitude(deg)": -17.787309939173223,
        "Longitude(deg)": 70.90988741514361,
        "Mean Anomaly(deg)": -25.382462029762245,
        "RAAN(deg)": 189.99315271096611,
        "Satellite Name": "Constellation 1 856",
        "Satellite Number": 856,
        "Semi-Major Axis(m)": 7083131.272910544,
        "Time(s)": 121
    },
    {
        "Altitude(m)": 707386.09535967,
        "Argument of Periapsis(deg)": 0.0073136567619394854,
        "Eccentricity": 0.0,
        "Inclination(deg)": 45.0,
        "Latitude(deg)": -17.746421658498758,
        "Longitude(deg)": 70.95296430755141,
        "Mean Anomaly(deg)": -25.32176088951236,
        "RAAN(deg)": 189.9930961218005,
        "Satellite Name": "Constellation 1 856",
        "Satellite Number": 856,
        "Semi-Major Axis(m)": 7083131.272910544,
        "Time(s)": 122
    },
    {
        "Altitude(m)": 707373.5030712406,
        "Argument of Periapsis(deg)": 0.0073736047681848904,
        "Eccentricity": 0.0,
        "Inclination(deg)": 45.0,
        "Latitude(deg)": -17.705521771212716,
        "Longitude(deg)": 70.99601990296395,
        "Mean Anomaly(deg)": -25.26105974926242,
        "RAAN(deg)": 189.99303953263495,
        "Satellite Name": "Constellation 1 856",
        "Satellite Number": 856,
        "Semi-Major Axis(m)": 7083131.272910544,
        "Time(s)": 123
    },
    {
        "Altitude(m)": 707360.9212607783,
        "Argument of Periapsis(deg)": 0.007433552774430298,
        "Eccentricity": 0.0,
        "Inclination(deg)": 45.0,
        "Latitude(deg)": -17.66461031045192,
        "Longitude(deg)": 71.03905425756369,
        "Mean Anomaly(deg)": -25.200358609012433,
        "RAAN(deg)": 189.99298294346937,
        "Satellite Name": "Constellation 1 856",
        "Satellite Number": 856,
        "Semi-Major Axis(m)": 7083131.272910544,
        "Time(s)": 124
    },
    {
        "Altitude(m)": 707348.3499679472,
        "Argument of Periapsis(deg)": 0.007493500780675703,
        "Eccentricity": 0.0,
        "Inclination(deg)": 45.0,
        "Latitude(deg)": -17.62368730931204,
        "Longitude(deg)": 71.08206742750302,
        "Mean Anomaly(deg)": -25.1396574687627,
        "RAAN(deg)": 189.99292635430382,
        "Satellite Name": "Constellation 1 856",
        "Satellite Number": 856,
        "Semi-Major Axis(m)": 7083131.272910544,
        "Time(s)": 125
    },
    {
        "Altitude(m)": 707335.7892323487,
        "Argument of Periapsis(deg)": 0.007553448786921108,
        "Eccentricity": 0.0,
        "Inclination(deg)": 45.0,
        "Latitude(deg)": -17.582752800847246,
        "Longitude(deg)": 71.12505930080785,
        "Mean Anomaly(deg)": -25.07895632851274,
        "RAAN(deg)": 189.99286976513827,
        "Satellite Name": "Constellation 1 856",
        "Satellite Number": 856,
        "Semi-Major Axis(m)": 7083131.272910544,
        "Time(s)": 126
    },
    {
        "Altitude(m)": 707323.2390935506,
        "Argument of Periapsis(deg)": 0.007613396793166514,
        "Eccentricity": 0.0,
        "Inclination(deg)": 45.0,
        "Latitude(deg)": -17.541806818070647,
        "Longitude(deg)": 71.16803026976436,
        "Mean Anomaly(deg)": -25.018255188262874,
        "RAAN(deg)": 189.99281317597266,
        "Satellite Name": "Constellation 1 856",
        "Satellite Number": 856,
        "Semi-Major Axis(m)": 7083131.272910544,
        "Time(s)": 127
    },
    {
        "Altitude(m)": 707310.6995910464,
        "Argument of Periapsis(deg)": 0.007673344799411918,
        "Eccentricity": 0.0,
        "Inclination(deg)": 45.0,
        "Latitude(deg)": -17.50084939395454,
        "Longitude(deg)": 71.21098022233825,
        "Mean Anomaly(deg)": -24.957554048012913,
        "RAAN(deg)": 189.9927565868071,
        "Satellite Name": "Constellation 1 856",
        "Satellite Number": 856,
        "Semi-Major Axis(m)": 7083131.272910544,
        "Time(s)": 128
    },
    {
        "Altitude(m)": 707298.1707642806,
        "Argument of Periapsis(deg)": 0.007733292805657325,
        "Eccentricity": 0.0,
        "Inclination(deg)": 45.0,
        "Latitude(deg)": -17.459880561430428,
        "Longitude(deg)": 71.25390921456177,
        "Mean Anomaly(deg)": -24.89685290776305,
        "RAAN(deg)": 189.99269999764155,
        "Satellite Name": "Constellation 1 856",
        "Satellite Number": 856,
        "Semi-Major Axis(m)": 7083131.272910544,
        "Time(s)": 129
    },
    {
        "Altitude(m)": 707285.6526526408,
        "Argument of Periapsis(deg)": 0.00779324081190273,
        "Eccentricity": 0.0,
        "Inclination(deg)": 45.0,
        "Latitude(deg)": -17.418900353388807,
        "Longitude(deg)": 71.29681730243746,
        "Mean Anomaly(deg)": -24.836151767513087,
        "RAAN(deg)": 189.99264340847597,
        "Satellite Name": "Constellation 1 856",
        "Satellite Number": 856,
        "Semi-Major Axis(m)": 7083131.272910544,
        "Time(s)": 130
    },
    {
        "Altitude(m)": 707273.1452954606,
        "Argument of Periapsis(deg)": 0.007853188818148135,
        "Eccentricity": 0.0,
        "Inclination(deg)": 45.0,
        "Latitude(deg)": -17.377908802679887,
        "Longitude(deg)": 71.33970454193732,
        "Mean Anomaly(deg)": -24.77545062726323,
        "RAAN(deg)": 189.99258681931042,
        "Satellite Name": "Constellation 1 856",
        "Satellite Number": 856,
        "Semi-Major Axis(m)": 7083131.272910544,
        "Time(s)": 131
    },
    {
        "Altitude(m)": 707260.6487320065,
        "Argument of Periapsis(deg)": 0.007913136824393542,
        "Eccentricity": 0.0,
        "Inclination(deg)": 45.0,
        "Latitude(deg)": -17.336905942113063,
        "Longitude(deg)": 71.38257098900351,
        "Mean Anomaly(deg)": -24.714749487013368,
        "RAAN(deg)": 189.99253023014484,
        "Satellite Name": "Constellation 1 856",
        "Satellite Number": 856,
        "Semi-Major Axis(m)": 7083131.272910544,
        "Time(s)": 132
    }
]